{
  "type": "FeatureCollection",
  "features": [
    {
      "type": "Feature",
      "properties": {
        "norad_id": 66668,
        "name": "TRANSPORTER-15 C",
        "group": "last-30-days",
        "lat": -82.56139434214921,
        "lon": 154.7272645634674,
        "alt_km": 516.7419117961244,
        "timestamp": "2025-12-21T05:44:50.290147+00:00",
        "meta_object_name": "TRANSPORTER-15 C",
        "meta_object_id": "2025-276C",
        "meta_epoch": "2025-12-20T22:13:37.384896",
        "meta_mean_motion": 15.1707915,
        "meta_eccentricity": 0.00076649,
        "meta_inclination": 97.4287,
        "meta_ra_of_asc_node": 66.4889,
        "meta_arg_of_pericenter": 274.4536,
        "meta_mean_anomaly": 85.5822,
        "meta_ephemeris_type": 0,
        "meta_classification_type": "U",
        "meta_norad_cat_id": 66668,
        "meta_element_set_no": 999,
        "meta_rev_at_epoch": 336,
        "meta_bstar": 0.00069124984,
        "meta_mean_motion_dot": 0.00013648,
        "meta_mean_motion_ddot": 0,
        "tle_line1": "1 66668U 25276C   25354.92612714  .00013648  00000+0  69125-3 0  9992",
        "tle_line2": "2 66668  97.4287  66.4889 0007664 274.4536  85.5822 15.17079150  3364"
      },
      "geometry": {
        "type": "Point",
        "coordinates": [
          154.7272645634674,
          -82.56139434214921
        ]
      }
    },
    {
      "type": "Feature",
      "properties": {
        "norad_id": 66669,
        "name": "TRANSPORTER-15 D",
        "group": "last-30-days",
        "lat": -7.834159880863697,
        "lon": 67.86576368359451,
        "alt_km": 461.96496390861284,
        "timestamp": "2025-12-21T05:44:50.290157+00:00",
        "meta_object_name": "TRANSPORTER-15 D",
        "meta_object_id": "2025-276D",
        "meta_epoch": "2025-12-20T03:08:59.510112",
        "meta_mean_motion": 15.25643349,
        "meta_eccentricity": 0.00483079,
        "meta_inclination": 97.4323,
        "meta_ra_of_asc_node": 65.7247,
        "meta_arg_of_pericenter": 228.3761,
        "meta_mean_anomaly": 131.3335,
        "meta_ephemeris_type": 0,
        "meta_classification_type": "U",
        "meta_norad_cat_id": 66669,
        "meta_element_set_no": 999,
        "meta_rev_at_epoch": 324,
        "meta_bstar": 0.21715082,
        "meta_mean_motion_dot": 0.06545393,
        "meta_mean_motion_ddot": 0,
        "tle_line1": "1 66669U 25276D   25354.13124433  .06545393  00000+0  21715+0 0  9994",
        "tle_line2": "2 66669  97.4323  65.7247 0048307 228.3761 131.3335 15.25643349  3245"
      },
      "geometry": {
        "type": "Point",
        "coordinates": [
          67.86576368359451,
          -7.834159880863697
        ]
      }
    },
    {
      "type": "Feature",
      "properties": {
        "norad_id": 66670,
        "name": "TRANSPORTER-15 E",
        "group": "last-30-days",
        "lat": -79.88798297566106,
        "lon": 113.8457751240403,
        "alt_km": 516.909344211831,
        "timestamp": "2025-12-21T05:44:50.290178+00:00",
        "meta_object_name": "TRANSPORTER-15 E",
        "meta_object_id": "2025-276E",
        "meta_epoch": "2025-12-20T15:51:59.787360",
        "meta_mean_motion": 15.17139026,
        "meta_eccentricity": 0.00071025,
        "meta_inclination": 97.4309,
        "meta_ra_of_asc_node": 66.2389,
        "meta_arg_of_pericenter": 279.778,
        "meta_mean_anomaly": 80.2651,
        "meta_ephemeris_type": 0,
        "meta_classification_type": "U",
        "meta_norad_cat_id": 66670,
        "meta_element_set_no": 999,
        "meta_rev_at_epoch": 332,
        "meta_bstar": 0.00070103605,
        "meta_mean_motion_dot": 0.00013864,
        "meta_mean_motion_ddot": 0,
        "tle_line1": "1 66670U 25276E   25354.66110865  .00013864  00000+0  70104-3 0  9995",
        "tle_line2": "2 66670  97.4309  66.2389 0007102 279.7780  80.2651 15.17139026  3328"
      },
      "geometry": {
        "type": "Point",
        "coordinates": [
          113.8457751240403,
          -79.88798297566106
        ]
      }
    },
    {
      "type": "Feature",
      "properties": {
        "norad_id": 66671,
        "name": "TRANSPORTER-15 F",
        "group": "last-30-days",
        "lat": -69.83756009216127,
        "lon": 87.70101955529091,
        "alt_km": 519.0109091384147,
        "timestamp": "2025-12-21T05:44:50.290192+00:00",
        "meta_object_name": "TRANSPORTER-15 F",
        "meta_object_id": "2025-276F",
        "meta_epoch": "2025-12-20T15:48:48.812256",
        "meta_mean_motion": 15.17059148,
        "meta_eccentricity": 0.00049931,
        "meta_inclination": 97.4432,
        "meta_ra_of_asc_node": 66.2732,
        "meta_arg_of_pericenter": 261.2585,
        "meta_mean_anomaly": 98.8083,
        "meta_ephemeris_type": 0,
        "meta_classification_type": "U",
        "meta_norad_cat_id": 66671,
        "meta_element_set_no": 999,
        "meta_rev_at_epoch": 332,
        "meta_bstar": 0.00042113504,
        "meta_mean_motion_dot": 8.274e-05,
        "meta_mean_motion_ddot": 0,
        "tle_line1": "1 66671U 25276F   25354.65889829  .00008274  00000+0  42114-3 0  9997",
        "tle_line2": "2 66671  97.4432  66.2732 0004993 261.2585  98.8083 15.17059148  3322"
      },
      "geometry": {
        "type": "Point",
        "coordinates": [
          87.70101955529091,
          -69.83756009216127
        ]
      }
    },
    {
      "type": "Feature",
      "properties": {
        "norad_id": 66672,
        "name": "TRANSPORTER-15 G",
        "group": "last-30-days",
        "lat": -81.23410945563094,
        "lon": -171.11372289802026,
        "alt_km": 519.8125344691525,
        "timestamp": "2025-12-21T05:44:50.290204+00:00",
        "meta_object_name": "TRANSPORTER-15 G",
        "meta_object_id": "2025-276G",
        "meta_epoch": "2025-12-20T22:14:47.537376",
        "meta_mean_motion": 15.16610454,
        "meta_eccentricity": 0.00053171,
        "meta_inclination": 97.4402,
        "meta_ra_of_asc_node": 66.5193,
        "meta_arg_of_pericenter": 258.7365,
        "meta_mean_anomaly": 101.327,
        "meta_ephemeris_type": 0,
        "meta_classification_type": "U",
        "meta_norad_cat_id": 66672,
        "meta_element_set_no": 999,
        "meta_rev_at_epoch": 336,
        "meta_bstar": 0.00038837072,
        "meta_mean_motion_dot": 7.528e-05,
        "meta_mean_motion_ddot": 0,
        "tle_line1": "1 66672U 25276G   25354.92693909  .00007528  00000+0  38837-3 0  9998",
        "tle_line2": "2 66672  97.4402  66.5193 0005317 258.7365 101.3270 15.16610454  3366"
      },
      "geometry": {
        "type": "Point",
        "coordinates": [
          -171.11372289802026,
          -81.23410945563094
        ]
      }
    },
    {
      "type": "Feature",
      "properties": {
        "norad_id": 66673,
        "name": "TRANSPORTER-15 H",
        "group": "last-30-days",
        "lat": -74.76680602715692,
        "lon": 95.48891855506392,
        "alt_km": 518.0778869375144,
        "timestamp": "2025-12-21T05:44:50.290214+00:00",
        "meta_object_name": "TRANSPORTER-15 H",
        "meta_object_id": "2025-276H",
        "meta_epoch": "2025-12-20T22:10:10.446528",
        "meta_mean_motion": 15.17067468,
        "meta_eccentricity": 0.00057838,
        "meta_inclination": 97.4371,
        "meta_ra_of_asc_node": 66.5141,
        "meta_arg_of_pericenter": 277.186,
        "meta_mean_anomaly": 82.8716,
        "meta_ephemeris_type": 0,
        "meta_classification_type": "U",
        "meta_norad_cat_id": 66673,
        "meta_element_set_no": 999,
        "meta_rev_at_epoch": 336,
        "meta_bstar": 0.00035791298,
        "meta_mean_motion_dot": 7.024e-05,
        "meta_mean_motion_ddot": 0,
        "tle_line1": "1 66673U 25276H   25354.92373202  .00007024  00000+0  35791-3 0  9997",
        "tle_line2": "2 66673  97.4371  66.5141 0005783 277.1860  82.8716 15.17067468  3367"
      },
      "geometry": {
        "type": "Point",
        "coordinates": [
          95.48891855506392,
          -74.76680602715692
        ]
      }
    },
    {
      "type": "Feature",
      "properties": {
        "norad_id": 66674,
        "name": "TRANSPORTER-15 J",
        "group": "last-30-days",
        "lat": -81.42895608302726,
        "lon": 126.91403570750892,
        "alt_km": 519.7907654345499,
        "timestamp": "2025-12-21T05:44:50.290224+00:00",
        "meta_object_name": "TRANSPORTER-15 J",
        "meta_object_id": "2025-276J",
        "meta_epoch": "2025-12-20T15:52:27.796512",
        "meta_mean_motion": 15.16718847,
        "meta_eccentricity": 0.00049193,
        "meta_inclination": 97.4381,
        "meta_ra_of_asc_node": 66.2572,
        "meta_arg_of_pericenter": 264.8158,
        "meta_mean_anomaly": 95.2514,
        "meta_ephemeris_type": 0,
        "meta_classification_type": "U",
        "meta_norad_cat_id": 66674,
        "meta_element_set_no": 999,
        "meta_rev_at_epoch": 332,
        "meta_bstar": 0.00025674243,
        "meta_mean_motion_dot": 4.968e-05,
        "meta_mean_motion_ddot": 0,
        "tle_line1": "1 66674U 25276J   25354.66143283  .00004968  00000+0  25674-3 0  9996",
        "tle_line2": "2 66674  97.4381  66.2572 0004919 264.8158  95.2514 15.16718847  3320"
      },
      "geometry": {
        "type": "Point",
        "coordinates": [
          126.91403570750892,
          -81.42895608302726
        ]
      }
    }
  ]
}